STARLINK-36633          
1 67632U 26020R   26030.34439120 -.00002705  85507-5  00000+0 0  9995
2 67632  43.0100  17.8878 0006900 318.5000  14.7500 16.02007763    15
STARLINK-36637          
1 67633U 26020S   26030.34439120 -.00002705  85507-5  00000+0 0  9996
2 67633  43.0100  17.8878 0006900 318.5000  14.7500 16.02007763    16
STARLINK-36617          
1 67634U 26020T   26030.34439120 -.00002705  85507-5  00000+0 0  9997
2 67634  43.0100  17.8878 0006900 318.5000  14.7500 16.02007763    17
STARLINK-36627          
1 67635U 26020U   26030.34439120 -.00002705  85507-5  00000+0 0  9998
2 67635  43.0100  17.8878 0006900 318.5000  14.7500 16.02007763    18
STARLINK-36624          
1 67636U 26020V   26030.34439120 -.00002705  85507-5  00000+0 0  9999
2 67636  43.0100  17.8878 0006900 318.5000  14.7500 16.02007763    19
STARLINK-36610          
1 67637U 26020W   26030.34439120 -.00002705  85507-5  00000+0 0  9990
2 67637  43.0100  17.8878 0006900 318.5000  14.7500 16.02007763    10
STARLINK-36599          
1 67638U 26020X   26030.34439120 -.00002705  85507-5  00000+0 0  9991
2 67638  43.0100  17.8878 0006900 318.5000  14.7500 16.02007763    11
STARLINK-36595          
1 67639U 26020Y   26030.34439120 -.00002705  85507-5  00000+0 0  9992
2 67639  43.0100  17.8878 0006900 318.5000  14.7500 16.02007763    12
STARLINK-36570          
1 67640U 26020Z   26030.34439120 -.00002705  85507-5  00000+0 0  9994
2 67640  43.0100  17.8878 0006900 318.5000  14.7500 16.02007763    14
STARLINK-36514          
1 67641U 26020AA  26030.34439120 -.00002705  85507-5  00000+0 0  9995
2 67641  43.0100  17.8878 0006900 318.5000  14.7500 16.02007763    15
STARLINK-36556          
1 67642U 26020AB  26030.34439120 -.00002705  85507-5  00000+0 0  9996
2 67642  43.0100  17.8878 0006900 318.5000  14.7500 16.02007763    16
STARLINK-36533          
1 67643U 26020AC  26030.34439120 -.00002705  85507-5  00000+0 0  9997
2 67643  43.0100  17.8878 0006900 318.5000  14.7500 16.02007763    17
