CCSDS_OMM_VERS = 2.0
CREATION_DATE  = 
ORIGINATOR     = 

OBJECT_NAME    = STARLINK-36633
OBJECT_ID      = 2026-020R
CENTER_NAME    = EARTH
REF_FRAME      = TEME
TIME_SYSTEM    = UTC
MEAN_ELEMENT_THEORY = SGP/SGP4

EPOCH          = 2026-01-30T08:15:55.399680
MEAN_MOTION    = 16.02007763
ECCENTRICITY   = .00069
INCLINATION    = 43.0100
RA_OF_ASC_NODE = 17.8878
ARG_OF_PERICENTER = 318.5000
MEAN_ANOMALY   = 14.7500

EPHEMERIS_TYPE = 0
CLASSIFICATION_TYPE = U
NORAD_CAT_ID   = 67632
ELEMENT_SET_NO = 999
REV_AT_EPOCH   = 1
BSTAR          = 0
MEAN_MOTION_DOT = -.2705E-4
MEAN_MOTION_DDOT = .8550678E-5

CCSDS_OMM_VERS = 2.0
CREATION_DATE  = 
ORIGINATOR     = 

OBJECT_NAME    = STARLINK-36637
OBJECT_ID      = 2026-020S
CENTER_NAME    = EARTH
REF_FRAME      = TEME
TIME_SYSTEM    = UTC
MEAN_ELEMENT_THEORY = SGP/SGP4

EPOCH          = 2026-01-30T08:15:55.399680
MEAN_MOTION    = 16.02007763
ECCENTRICITY   = .00069
INCLINATION    = 43.0100
RA_OF_ASC_NODE = 17.8878
ARG_OF_PERICENTER = 318.5000
MEAN_ANOMALY   = 14.7500

EPHEMERIS_TYPE = 0
CLASSIFICATION_TYPE = U
NORAD_CAT_ID   = 67633
ELEMENT_SET_NO = 999
REV_AT_EPOCH   = 1
BSTAR          = 0
MEAN_MOTION_DOT = -.2705E-4
MEAN_MOTION_DDOT = .8550678E-5

CCSDS_OMM_VERS = 2.0
CREATION_DATE  = 
ORIGINATOR     = 

OBJECT_NAME    = STARLINK-36617
OBJECT_ID      = 2026-020T
CENTER_NAME    = EARTH
REF_FRAME      = TEME
TIME_SYSTEM    = UTC
MEAN_ELEMENT_THEORY = SGP/SGP4

EPOCH          = 2026-01-30T08:15:55.399680
MEAN_MOTION    = 16.02007763
ECCENTRICITY   = .00069
INCLINATION    = 43.0100
RA_OF_ASC_NODE = 17.8878
ARG_OF_PERICENTER = 318.5000
MEAN_ANOMALY   = 14.7500

EPHEMERIS_TYPE = 0
CLASSIFICATION_TYPE = U
NORAD_CAT_ID   = 67634
ELEMENT_SET_NO = 999
REV_AT_EPOCH   = 1
BSTAR          = 0
MEAN_MOTION_DOT = -.2705E-4
MEAN_MOTION_DDOT = .8550678E-5

CCSDS_OMM_VERS = 2.0
CREATION_DATE  = 
ORIGINATOR     = 

OBJECT_NAME    = STARLINK-36627
OBJECT_ID      = 2026-020U
CENTER_NAME    = EARTH
REF_FRAME      = TEME
TIME_SYSTEM    = UTC
MEAN_ELEMENT_THEORY = SGP/SGP4

EPOCH          = 2026-01-30T08:15:55.399680
MEAN_MOTION    = 16.02007763
ECCENTRICITY   = .00069
INCLINATION    = 43.0100
RA_OF_ASC_NODE = 17.8878
ARG_OF_PERICENTER = 318.5000
MEAN_ANOMALY   = 14.7500

EPHEMERIS_TYPE = 0
CLASSIFICATION_TYPE = U
NORAD_CAT_ID   = 67635
ELEMENT_SET_NO = 999
REV_AT_EPOCH   = 1
BSTAR          = 0
MEAN_MOTION_DOT = -.2705E-4
MEAN_MOTION_DDOT = .8550678E-5

CCSDS_OMM_VERS = 2.0
CREATION_DATE  = 
ORIGINATOR     = 

OBJECT_NAME    = STARLINK-36624
OBJECT_ID      = 2026-020V
CENTER_NAME    = EARTH
REF_FRAME      = TEME
TIME_SYSTEM    = UTC
MEAN_ELEMENT_THEORY = SGP/SGP4

EPOCH          = 2026-01-30T08:15:55.399680
MEAN_MOTION    = 16.02007763
ECCENTRICITY   = .00069
INCLINATION    = 43.0100
RA_OF_ASC_NODE = 17.8878
ARG_OF_PERICENTER = 318.5000
MEAN_ANOMALY   = 14.7500

EPHEMERIS_TYPE = 0
CLASSIFICATION_TYPE = U
NORAD_CAT_ID   = 67636
ELEMENT_SET_NO = 999
REV_AT_EPOCH   = 1
BSTAR          = 0
MEAN_MOTION_DOT = -.2705E-4
MEAN_MOTION_DDOT = .8550678E-5

CCSDS_OMM_VERS = 2.0
CREATION_DATE  = 
ORIGINATOR     = 

OBJECT_NAME    = STARLINK-36610
OBJECT_ID      = 2026-020W
CENTER_NAME    = EARTH
REF_FRAME      = TEME
TIME_SYSTEM    = UTC
MEAN_ELEMENT_THEORY = SGP/SGP4

EPOCH          = 2026-01-30T08:15:55.399680
MEAN_MOTION    = 16.02007763
ECCENTRICITY   = .00069
INCLINATION    = 43.0100
RA_OF_ASC_NODE = 17.8878
ARG_OF_PERICENTER = 318.5000
MEAN_ANOMALY   = 14.7500

EPHEMERIS_TYPE = 0
CLASSIFICATION_TYPE = U
NORAD_CAT_ID   = 67637
ELEMENT_SET_NO = 999
REV_AT_EPOCH   = 1
BSTAR          = 0
MEAN_MOTION_DOT = -.2705E-4
MEAN_MOTION_DDOT = .8550678E-5

CCSDS_OMM_VERS = 2.0
CREATION_DATE  = 
ORIGINATOR     = 

OBJECT_NAME    = STARLINK-36599
OBJECT_ID      = 2026-020X
CENTER_NAME    = EARTH
REF_FRAME      = TEME
TIME_SYSTEM    = UTC
MEAN_ELEMENT_THEORY = SGP/SGP4

EPOCH          = 2026-01-30T08:15:55.399680
MEAN_MOTION    = 16.02007763
ECCENTRICITY   = .00069
INCLINATION    = 43.0100
RA_OF_ASC_NODE = 17.8878
ARG_OF_PERICENTER = 318.5000
MEAN_ANOMALY   = 14.7500

EPHEMERIS_TYPE = 0
CLASSIFICATION_TYPE = U
NORAD_CAT_ID   = 67638
ELEMENT_SET_NO = 999
REV_AT_EPOCH   = 1
BSTAR          = 0
MEAN_MOTION_DOT = -.2705E-4
MEAN_MOTION_DDOT = .8550678E-5

CCSDS_OMM_VERS = 2.0
CREATION_DATE  = 
ORIGINATOR     = 

OBJECT_NAME    = STARLINK-36595
OBJECT_ID      = 2026-020Y
CENTER_NAME    = EARTH
REF_FRAME      = TEME
TIME_SYSTEM    = UTC
MEAN_ELEMENT_THEORY = SGP/SGP4

EPOCH          = 2026-01-30T08:15:55.399680
MEAN_MOTION    = 16.02007763
ECCENTRICITY   = .00069
INCLINATION    = 43.0100
RA_OF_ASC_NODE = 17.8878
ARG_OF_PERICENTER = 318.5000
MEAN_ANOMALY   = 14.7500

EPHEMERIS_TYPE = 0
CLASSIFICATION_TYPE = U
NORAD_CAT_ID   = 67639
ELEMENT_SET_NO = 999
REV_AT_EPOCH   = 1
BSTAR          = 0
MEAN_MOTION_DOT = -.2705E-4
MEAN_MOTION_DDOT = .8550678E-5

CCSDS_OMM_VERS = 2.0
CREATION_DATE  = 
ORIGINATOR     = 

OBJECT_NAME    = STARLINK-36570
OBJECT_ID      = 2026-020Z
CENTER_NAME    = EARTH
REF_FRAME      = TEME
TIME_SYSTEM    = UTC
MEAN_ELEMENT_THEORY = SGP/SGP4

EPOCH          = 2026-01-30T08:15:55.399680
MEAN_MOTION    = 16.02007763
ECCENTRICITY   = .00069
INCLINATION    = 43.0100
RA_OF_ASC_NODE = 17.8878
ARG_OF_PERICENTER = 318.5000
MEAN_ANOMALY   = 14.7500

EPHEMERIS_TYPE = 0
CLASSIFICATION_TYPE = U
NORAD_CAT_ID   = 67640
ELEMENT_SET_NO = 999
REV_AT_EPOCH   = 1
BSTAR          = 0
MEAN_MOTION_DOT = -.2705E-4
MEAN_MOTION_DDOT = .8550678E-5

CCSDS_OMM_VERS = 2.0
CREATION_DATE  = 
ORIGINATOR     = 

OBJECT_NAME    = STARLINK-36514
OBJECT_ID      = 2026-020AA
CENTER_NAME    = EARTH
REF_FRAME      = TEME
TIME_SYSTEM    = UTC
MEAN_ELEMENT_THEORY = SGP/SGP4

EPOCH          = 2026-01-30T08:15:55.399680
MEAN_MOTION    = 16.02007763
ECCENTRICITY   = .00069
INCLINATION    = 43.0100
RA_OF_ASC_NODE = 17.8878
ARG_OF_PERICENTER = 318.5000
MEAN_ANOMALY   = 14.7500

EPHEMERIS_TYPE = 0
CLASSIFICATION_TYPE = U
NORAD_CAT_ID   = 67641
ELEMENT_SET_NO = 999
REV_AT_EPOCH   = 1
BSTAR          = 0
MEAN_MOTION_DOT = -.2705E-4
MEAN_MOTION_DDOT = .8550678E-5

CCSDS_OMM_VERS = 2.0
CREATION_DATE  = 
ORIGINATOR     = 

OBJECT_NAME    = STARLINK-36556
OBJECT_ID      = 2026-020AB
CENTER_NAME    = EARTH
REF_FRAME      = TEME
TIME_SYSTEM    = UTC
MEAN_ELEMENT_THEORY = SGP/SGP4

EPOCH          = 2026-01-30T08:15:55.399680
MEAN_MOTION    = 16.02007763
ECCENTRICITY   = .00069
INCLINATION    = 43.0100
RA_OF_ASC_NODE = 17.8878
ARG_OF_PERICENTER = 318.5000
MEAN_ANOMALY   = 14.7500

EPHEMERIS_TYPE = 0
CLASSIFICATION_TYPE = U
NORAD_CAT_ID   = 67642
ELEMENT_SET_NO = 999
REV_AT_EPOCH   = 1
BSTAR          = 0
MEAN_MOTION_DOT = -.2705E-4
MEAN_MOTION_DDOT = .8550678E-5

CCSDS_OMM_VERS = 2.0
CREATION_DATE  = 
ORIGINATOR     = 

OBJECT_NAME    = STARLINK-36533
OBJECT_ID      = 2026-020AC
CENTER_NAME    = EARTH
REF_FRAME      = TEME
TIME_SYSTEM    = UTC
MEAN_ELEMENT_THEORY = SGP/SGP4

EPOCH          = 2026-01-30T08:15:55.399680
MEAN_MOTION    = 16.02007763
ECCENTRICITY   = .00069
INCLINATION    = 43.0100
RA_OF_ASC_NODE = 17.8878
ARG_OF_PERICENTER = 318.5000
MEAN_ANOMALY   = 14.7500

EPHEMERIS_TYPE = 0
CLASSIFICATION_TYPE = U
NORAD_CAT_ID   = 67643
ELEMENT_SET_NO = 999
REV_AT_EPOCH   = 1
BSTAR          = 0
MEAN_MOTION_DOT = -.2705E-4
MEAN_MOTION_DDOT = .8550678E-5

